STARLINK-32678          
1 62309U 24239J   26068.63581985  .00019883  00000+0  68165-3 0  9994
2 62309  53.1608 181.5302 0000808 116.9668 243.1415 15.30198558 69558
2025-313BD              
1 67299U 25313BD  26068.62968741  .00081010  00000+0  27634-2 0  9995
2 67299  97.3970 145.2850 0007287 333.4514  26.6352 15.30002360 10838
